IRIDIUM 921             
1 24873U 97034E   24320.43894190  .00124968  00000+0  14198-2 0  9990
2 24873  86.3764 212.2397 0006709  65.7611 294.4355 15.61896333498574
IRIDIUM 26              
1 24903U 97043A   24320.54939038  .00000952  00000+0  31616-3 0  9998
2 24903  86.4009 200.2588 0002352  82.2977 277.8488 14.36795911426067
IRIDIUM 22              
1 24907U 97043E   24320.44469828  .00000793  00000+0  26835-3 0  9996
2 24907  86.4012 203.6554 0002103  81.9836 278.1599 14.35647524426106
DUMMY MASS 1            
1 24925U 97048A   24320.26215046  .00001081  00000+0  11870-3 0  9996
2 24925  86.3374 234.1443 0006859 163.8271 196.3174 14.86617058473340
DUMMY MASS 2            
1 24926U 97048B   24320.25614753  .00001078  00000+0  11915-3 0  9990
2 24926  86.3369 235.7158 0007108 177.0026 183.1242 14.86372198473127
IRIDIUM 29              
1 24944U 97051A   24320.46991251  .00000959  00000+0  32280-3 0  9993
2 24944  86.3982 233.4452 0002065  84.8099 275.3333 14.36106083422595
IRIDIUM 33              
1 24946U 97051C   24320.50390057  .00000712  00000+0  24496-3 0  9994
2 24946  86.3901 232.6782 0009918  61.8170 298.4026 14.34647925422109
IRIDIUM 28              
1 24948U 97051E   24320.51283263  .00000978  00000+0  32323-3 0  9999
2 24948  86.3991 231.0650 0002694  79.8468 280.3033 14.37054746423150
